     2.11           N: GPS NAV DATA                         RINEX VERSION / TYPE
teqc  2019Feb25                         20221121 12:27:07UTCPGM / RUN BY / DATE
OSX ker:10.11.6|Core i5|gcc 4.3 -m64|OSX ker:10.10+|=+      COMMENT
    7.4506D-09  1.4901D-08 -5.9605D-08 -1.1921D-07          ION ALPHA
    7.9872D+04  1.6384D+04 -1.3107D+05 -1.3107D+05          ION BETA
    4.656612873077D-09 1.421085471520D-14   503808     1548 DELTA-UTC: A0,A1,T,W
                                                            END OF HEADER
29 09  9  9  4  0  0.0 5.585234612226D-05 3.183231456205D-12 0.000000000000D+00
    1.120000000000D+02-3.868750000000D+01 4.565547316229D-09-2.880637715746D+00
   -2.136453986168D-06 3.130525816232D-03 8.316710591316D-06 5.153613069534D+03
    2.736000000000D+05 3.539025783539D-08 2.986737168997D+00 2.235174179077D-08
    9.605022394479D-01 2.149062500000D+02-1.279199636439D+00-7.966403261244D-09
   -2.867976605595D-10 1.000000000000D+00 1.548000000000D+03 0.000000000000D+00
    2.000000000000D+00 0.000000000000D+00-8.847564458847D-09 1.120000000000D+02
    2.664180000000D+05 4.000000000000D+00
24 09  9  9  4  0  0.0 2.191313542426D-04 3.069544618484D-12 0.000000000000D+00
    1.000000000000D+00 8.262500000000D+01 4.614477925813D-09 2.038940621764D+00
    4.269182682037D-06 6.491242442280D-03 1.066923141479D-05 5.153675748825D+03
    2.736000000000D+05 5.401670932770D-08-2.226041426281D+00 6.891787052155D-08
    9.502559334253D-01 1.669687500000D+02-6.292348256533D-01-7.962117368433D-09
    2.107230631757D-11 1.000000000000D+00 1.548000000000D+03 0.000000000000D+00
    2.800000000000D+00 0.000000000000D+00-1.396983861923D-09 2.570000000000D+02
    2.684820000000D+05 4.000000000000D+00
16 09  9  9  4  0  0.0 1.463154330850D-05-3.865352482535D-12 0.000000000000D+00
    8.900000000000D+01 6.312500000000D+00 4.505187659149D-09 1.936225025304D+00
    4.265457391739D-07 5.298955366015D-03 5.548819899559D-06 5.153610191345D+03
    2.736000000000D+05-1.862645149231D-08 1.935887806595D+00 6.146728992462D-08
    9.691058698694D-01 2.769687500000D+02-2.784736056692D-01-8.053906906122D-09
    2.071514858337D-10 1.000000000000D+00 1.548000000000D+03 0.000000000000D+00
    2.000000000000D+00 0.000000000000D+00-9.778887033463D-09 8.900000000000D+01
    2.695020000000D+05 4.000000000000D+00
 7 09  9  9  4  0  0.0 1.182034611702D-05-6.821210263297D-13 0.000000000000D+00
    3.200000000000D+01-2.275000000000D+01 3.983380209489D-09-1.943584524360D+00
   -1.231208443642D-06 3.103224677034D-03 1.121498644352D-05 5.153657627106D+03
    2.736000000000D+05-5.029141902924D-08 8.657945336690D-01 3.911554813385D-08
    9.686828700326D-01 1.671562500000D+02 2.932598206235D+00-7.738536626827D-09
    3.028697585983D-10 1.000000000000D+00 1.548000000000D+03 0.000000000000D+00
    2.000000000000D+00 0.000000000000D+00-1.071020960808D-08 3.200000000000D+01
    2.697720000000D+05 4.000000000000D+00
24 09  9  9  3 59 44.0 2.191350795329D-04 3.069544618484D-12 0.000000000000D+00
    1.900000000000D+01 8.262500000000D+01 4.614477925813D-09 2.036608367542D+00
    4.269182682037D-06 6.491238716990D-03 1.066923141479D-05 5.153675745010D+03
    2.735840000000D+05 5.401670932770D-08-2.226041297544D+00 6.891787052155D-08
    9.502559304995D-01 1.669687500000D+02-6.292362754051D-01-7.962117368433D-09
    2.107230631757D-11 1.000000000000D+00 1.548000000000D+03 0.000000000000D+00
    2.000000000000D+00 0.000000000000D+00-1.396983861923D-09 1.900000000000D+01
    2.708880000000D+05 4.000000000000D+00
 8 09  9  9  4  0  0.0-2.204859629273D-04-1.705302565824D-12 0.000000000000D+00
    8.600000000000D+01-2.575000000000D+01 3.573363130632D-09-2.626638802689D+00
   -1.350417733192D-06 1.093096658587D-02 1.142546534538D-05 5.153628789902D+03
    2.736000000000D+05-1.862645149231D-07 9.283057824505D-01 1.490116119385D-08
    9.898781845368D-01 1.732500000000D+02 3.017646993933D+00-7.444952969317D-09
    3.125130174216D-10 1.000000000000D+00 1.548000000000D+03 0.000000000000D+00
    2.800000000000D+00 0.000000000000D+00-3.725290298462D-09 8.600000000000D+01
    2.731020000000D+05 4.000000000000D+00
 5 09  9  9  6  0  0.0-9.729340672493D-05 1.227817847393D-11 0.000000000000D+00
    1.100000000000D+02 7.212500000000D+01 4.944134514476D-09 1.850392422192D+00
    3.799796104431D-06 2.314496668987D-03 3.013759851456D-06 5.157143516541D+03
    2.808000000000D+05-9.499490261078D-08-1.232631895015D+00-4.097819328308D-08
    9.614244059513D-01 3.215625000000D+02 8.407377956924D-01-8.426779580622D-09
    2.196520065306D-10 1.000000000000D+00 1.548000000000D+03 0.000000000000D+00
    2.800000000000D+00 0.000000000000D+00-9.313225746155D-09 1.100000000000D+02
    2.736180000000D+05 4.000000000000D+00
 2 09  9  9  6  0  0.0 1.710355281830D-04 2.842170943040D-12 0.000000000000D+00
    6.000000000000D+01 7.971875000000D+01 4.845201822104D-09 7.903435491869D-01
    4.164874553680D-06 9.093268425204D-03 1.061893999577D-05 5.153712244034D+03
    2.808000000000D+05 2.067536115646D-07-2.290711598361D+00 3.166496753693D-08
    9.409546081135D-01 1.653125000000D+02 2.890450031029D+00-8.124624137493D-09
    5.964534161075D-11 1.000000000000D+00 1.548000000000D+03 0.000000000000D+00
    2.000000000000D+00 0.000000000000D+00-1.722946763039D-08 6.000000000000D+01
    2.736180000000D+05 4.000000000000D+00
13 09  9  9  6  0  0.0 3.043566830456D-04 4.547473508865D-13 0.000000000000D+00
    8.200000000000D+01-7.734375000000D+01 3.808015761999D-09 1.388535335122D+00
   -4.261732101440D-06 4.017431754619D-03 6.705522537231D-06 5.153655593872D+03
    2.808000000000D+05-7.078051567078D-08-1.210341615586D-01-1.061707735062D-07
    9.947270864902D-01 2.665312500000D+02 1.657616548828D+00-7.778181135322D-09
   -3.782300405137D-10 1.000000000000D+00 1.548000000000D+03 0.000000000000D+00
    2.000000000000D+00 0.000000000000D+00-1.117587089539D-08 8.200000000000D+01
    2.736180000000D+05 4.000000000000D+00
10 09  9  9  6  0  0.0-2.313358709216D-05-7.958078640513D-13 0.000000000000D+00
    4.100000000000D+01 7.112500000000D+01 5.106998441270D-09 1.815974586996D+00
    3.702938556671D-06 8.592602098361D-03 3.118067979813D-06 5.153663282394D+03
    2.808000000000D+05-2.291053533554D-07-1.205372558320D+00 5.587935447693D-08
    9.565143905952D-01 3.192500000000D+02 6.261335797654D-01-8.576071513516D-09
    1.589351917173D-10 1.000000000000D+00 1.548000000000D+03 0.000000000000D+00
    2.800000000000D+00 0.000000000000D+00-2.793967723846D-09 4.100000000000D+01
    2.736180000000D+05 4.000000000000D+00
24 09  9  9  5 59 44.0 2.191569656134D-04 3.069544618484D-12 0.000000000000D+00
    2.400000000000D+01 8.912500000000D+01 4.547689429519D-09 3.086667572780D+00
    4.637986421585D-06 6.491362582892D-03 1.100450754166D-05 5.153676353455D+03
    2.807840000000D+05-6.519258022308D-08-2.226098996496D+00 1.024454832077D-07
    9.502565068892D-01 1.580625000000D+02-6.291162122555D-01-7.913186758848D-09
    1.096474243982D-10 1.000000000000D+00 1.548000000000D+03 0.000000000000D+00
    2.000000000000D+00 0.000000000000D+00-1.396983861923D-09 2.400000000000D+01
    2.736180000000D+05 4.000000000000D+00
29 09  9  9  6  0  0.0 5.587516352534D-05 3.183231456205D-12 0.000000000000D+00
    1.140000000000D+02-3.453125000000D+01 4.526974280935D-09-1.830501015349D+00
   -1.681968569756D-06 3.130982862785D-03 8.495524525642D-06 5.153612117767D+03
    2.808000000000D+05 1.117587089539D-08 2.986679805054D+00 5.960464477539D-08
    9.605000070349D-01 2.147187500000D+02-1.279117759840D+00-8.000690403726D-09
   -2.960837616486D-10 1.000000000000D+00 1.548000000000D+03 0.000000000000D+00
    2.800000000000D+00 0.000000000000D+00-8.847564458847D-09 1.140000000000D+02
    2.736180000000D+05 4.000000000000D+00
 7 09  9  9  6  0  0.0 1.181475818157D-05-6.821210263297D-13 0.000000000000D+00
    3.300000000000D+01-2.084375000000D+01 4.093741949356D-09-8.941598452095D-01
   -1.166015863419D-06 3.102594171651D-03 1.045875251293D-05 5.153653026581D+03
    2.808000000000D+05-3.539025783539D-08 8.657396054839D-01-1.490116119385D-07
    9.686845845726D-01 1.849687500000D+02 2.933361357932D+00-7.741393888700D-09
    1.517920370333D-10 1.000000000000D+00 1.548000000000D+03 0.000000000000D+00
    2.000000000000D+00 0.000000000000D+00-1.071020960808D-08 3.300000000000D+01
    2.736180000000D+05 4.000000000000D+00
 8 09  9  9  6  0  0.0-2.204985357821D-04-1.705302565824D-12 0.000000000000D+00
    8.700000000000D+01-2.262500000000D+01 3.583720704924D-09-1.576447513504D+00
   -1.335516571999D-06 1.093045889866D-02 1.110509037971D-05 5.153629081726D+03
    2.808000000000D+05-1.117587089539D-07 9.282513326396D-01-1.117587089539D-07
    9.898804330419D-01 1.800312500000D+02 3.017656820353D+00-7.531027983259D-09
    3.728726745007D-10 1.000000000000D+00 1.548000000000D+03 0.000000000000D+00
    2.800000000000D+00 0.000000000000D+00-3.725290298462D-09 8.700000000000D+01
    2.736180000000D+05 4.000000000000D+00
21 09  9  9  6  0  0.0-8.086208254099D-06-2.273736754432D-12 0.000000000000D+00
    1.200000000000D+01 7.509375000000D+01 4.888417907942D-09-1.852004670560D+00
    3.527849912643D-06 1.554820744786D-02 1.051090657711D-05 5.153763641357D+03
    2.808000000000D+05 1.098960638046D-07-2.260019419063D+00-1.620501279831D-07
    9.336576883046D-01 1.584687500000D+02-2.560789363567D+00-8.032477442070D-09
    2.742971398626D-10 1.000000000000D+00 1.548000000000D+03 0.000000000000D+00
    2.000000000000D+00 0.000000000000D+00-1.210719347000D-08 1.200000000000D+01
    2.736180000000D+05 4.000000000000D+00
